OPTICUBE 04             
1 41851U 16067D   18182.83253827 -.00000209  00000-0 -13004-4 0  9992
2 41851  97.9236 271.1405 0010050 113.7999 246.4276 14.96676277 89285
AEROCUBE 8D             
1 41852U 16067E   18183.20542054  .00000398  00000-0  40359-4 0  9998
2 41852  97.9257 271.3601 0011278 111.7543 248.4880 14.96509923 89326
AEROCUBE 8C             
1 41853U 16067F   18183.21991973 -.00000319  00000-0 -22757-4 0  9995
2 41853  97.9254 271.3369 0011352 113.0734 247.1684 14.96472412 89325
PROMETHEUS 2-1          
1 41854U 16067G   18183.22530778 -.00000197  00000-0 -11921-4 0  9994
2 41854  97.9258 271.3549 0011597 113.3125 246.9317 14.96580749 89321
PROMETHEUS 2-3          
1 41855U 16067H   18182.82679824 -.00000118  00000-0 -50387-5 0  9999
2 41855  97.9259 270.9560 0011748 115.0140 245.2302 14.96578017 89269
ITF-2                   
1 41932U 98067KU  18183.13354357  .00026731  00000-0  16161-3 0  9998
2 41932  51.6304 263.7548 0003885 291.9407  68.1180 15.77403380 83127
WASEDA-SAT3             
1 41933U 98067KV  18182.66337633  .00046177  00000-0  19405-3 0  9994
2 41933  51.6326 258.2006 0004219 314.5998  45.4661 15.85024205 83158
AOBA-VELOX 3            
1 41935U 98067KX  18182.66664739  .00035325  00000-0  17283-3 0  9991
2 41935  51.6344 261.3259 0003988 304.6616  55.4010 15.81923687 83218
INS-1B                  
1 41954U 17008G   18182.77475081  .00001078  00000-0  48792-4 0  9998
2 41954  97.4450 246.6172 0007989 308.8116  51.2406 15.23052308 76226
BGUSAT                  
1 41999U 17008BD  18182.86380038  .00001746  00000-0  73609-4 0  9991
2 41999  97.4496 247.8072 0007349 329.8450  30.2364 15.24661624 75666
DIDO-2                  
1 42000U 17008BE  18183.17458508  .00000771  00000-0  35573-4 0  9993
2 42000  97.4468 247.4529 0007655 329.5458  30.5333 15.23231438 75683
PEASSS                  
1 42015U 17008BV  18182.75106763  .00000968  00000-0  42859-4 0  9998
2 42015  97.4466 247.5067 0005814 343.2468  16.8576 15.24047927 76130
AL-FARABI 1             
1 42016U 17008BW  18182.87099016  .00001256  00000-0  54075-4 0  9998
2 42016  97.4474 247.8341 0005670 343.3544  16.7506 15.24471568 76284
NAYIF-1 (EO-88)         
1 42017U 17008BX  18182.73373541  .00001267  00000-0  54463-4 0  9995
2 42017  97.4472 247.7045 0005658 344.1437  15.9622 15.24495480 76288
HAVELSAT                
1 42700U 98067LH  18182.83642302  .00020003  00000-0  15354-3 0  9997
2 42700  51.6351 279.8142 0004614 314.2136  45.8482 15.72057225 64326
CXBN-2                  
1 42704U 98067LM  18183.11630413  .00022093  00000-0  17220-3 0  9998
2 42704  51.6358 279.4515 0001816 276.5723  83.5068 15.71625629 64271
ICECUBE                 
1 42705U 98067LN  18183.24180358  .00054176  00000-0  26261-3 0  9993
2 42705  51.6440 269.8644 0003606 328.0472  32.0311 15.81929122 64471
PHOENIX                 
1 42706U 98067LP  18182.68793303  .00015297  00000-0  13022-3 0  9993
2 42706  51.6357 282.5878 0001211 279.8688  80.2173 15.69797951 64180
X-CUBESAT               
1 42707U 98067LQ  18182.74833542  .00023898  00000-0  17783-3 0  9995
2 42707  51.6312 279.9034 0001847 298.5847  61.4966 15.72674357 64219
QBEE50-LTU-OC           
1 42708U 98067LR  18182.76713958  .00022985  00000-0  17793-3 0  9993
2 42708  51.6359 280.8484 0001694 296.9755  63.1070 15.71762317 64163
ALTAIR PATHFINDER       
1 42711U 98067LS  18182.88268749  .00009828  00000-0  10423-3 0  9997
2 42711  51.6364 289.1598 0003352 241.3187 118.7472 15.64817245 63779
SHARC                   
1 42712U 98067LT  18182.88579588  .00015916  00000-0  16431-3 0  9994
2 42712  51.6378 290.7399 0002439 263.4462  96.6255 15.64960133 63990
ZA-AEROSAT              
1 42713U 98067LU  18182.72897597  .00012929  00000-0  11705-3 0  9991
2 42713  51.6350 285.1008 0001832 245.9570 114.1235 15.68459698 63815
LINK                    
1 42714U 98067LV  18183.23953784  .00054322  00000-0  25522-3 0  9995
2 42714  51.6237 269.5329 0003724 320.5977  39.4754 15.82597711 64175
CSUNSAT 1               
1 42715U 98067LW  18182.86971860  .00015723  00000-0  13741-3 0  9991
2 42715  51.6356 283.8117 0003228 242.5612 117.5056 15.69128576 63840
SPACECUBE               
1 42717U 98067LY  18182.73062807  .00021694  00000-0  16903-3 0  9998
2 42717  51.6329 281.3274 0003507 313.7694  46.3013 15.71643925 63238
HOOPOE                  
1 42718U 98067LZ  18182.73740869  .00029489  00000-0  20112-3 0  9997
2 42718  51.6337 278.3728 0003854 316.3006  43.7688 15.74582700 63278
CHALLENGER              
1 42721U 98067MA  18182.68934608  .00115314  16103-4  35309-3 0  9993
2 42721  51.6257 266.5555 0008707 331.0480  29.0042 15.91686274 63127
NJUST-1                 
1 42722U 98067MB  18182.86239331  .00011989  00000-0  11335-3 0  9996
2 42722  51.6358 286.0161 0005349 291.6990  68.3437 15.67461333 62882
UNSW-ECO                
1 42723U 98067MC  18182.73087616  .00030728  00000-0  20176-3 0  9995
2 42723  51.6373 278.3661 0005343 302.3443  57.7039 15.75429586 62957
LILACSAT-1              
1 42725U 98067ME  18183.13490674  .00017671  00000-0  14765-3 0  9993
2 42725  51.6358 281.8247 0004594 298.1712  61.8821 15.70116624 62865
NSIGHT-1                
1 42726U 98067MF  18182.77596097  .00005705  00000-0  70645-4 0  9994
2 42726  51.6393 293.7595 0004898 290.4303  69.6165 15.61752218 62683
SNUSAT-1                
1 42727U 98067MG  18182.70137829  .00018201  00000-0  15221-3 0  9995
2 42727  51.6339 284.1236 0005665 261.3382  98.6973 15.70064486 62768
I-INSPIRE II            
1 42731U 98067ML  18182.84517495  .00028169  00000-0  18058-3 0  9991
2 42731  51.6354 276.7966 0004563 264.8341  95.2138 15.76034487 62766
POLYITAN-2-SAU          
1 42732U 98067MM  18182.88284169  .00024303  00000-0  18229-3 0  9991
2 42732  51.6339 280.0921 0004793 255.1724 104.8743 15.72466203 62728
SNUSAT-1B               
1 42733U 98067MN  18182.72990846  .00020349  00000-0  16428-3 0  9996
2 42733  51.6348 282.8425 0005035 254.1442 105.9001 15.70833279 62676
EXALTA-1                
1 42734U 98067MP  18182.88434272  .00031838  00000-0  19623-3 0  9995
2 42734  51.6281 276.2677 0006355 289.9890  70.0425 15.76849470 62722
BEEAGLESAT              
1 42736U 98067MR  18182.73985553  .00016747  00000-0  14468-3 0  9998
2 42736  51.6348 284.4094 0005630 290.5177  69.5215 15.69344817 62719
UCLSAT                  
1 42765U 17036A   18182.87144220  .00001010  00000-0  47357-4 0  9991
2 42765  97.3997 242.4832 0012644  32.7714 327.4304 15.21893825 57533
LITUANICASAT-2          
1 42768U 17036D   18182.86745279  .00001674  00000-0  77421-4 0  9995
2 42768  97.4014 242.0725 0016185  21.4204 338.7706 15.21439912 56798
AALTO-1                 
1 42775U 17036L   18183.16670965  .00000630  00000-0  31657-4 0  9998
2 42775  97.3990 242.2363 0014651  19.0759 341.1022 15.20778934 56778
URSA MAIOR              
1 42776U 17036M   18182.88932851  .00000733  00000-0  36231-4 0  9999
2 42776  97.3998 242.0179 0014532  20.2962 339.8848 15.20859379 56737
COMPASS 2               
1 42777U 17036N   18182.74095913  .00001387  00000-0  64078-4 0  9990
2 42777  97.4019 242.2827 0013523  24.6431 335.5448 15.21787750 56725
DIAMOND RED             
1 42783U 17036U   18182.74265011  .00000876  00000-0  41965-4 0  9997
2 42783  97.3999 242.2047 0013267  32.8199 327.3858 15.21495253 56727
PEGASUS                 
1 42784U 17036V   18182.91072346  .00000964  00000-0  45565-4 0  9992
2 42784  97.4000 242.4444 0013155  32.3494 327.8546 15.21702072 56756
DIAMOND GREEN           
1 42785U 17036W   18182.87304856  .00000863  00000-0  41365-4 0  9994
2 42785  97.4000 242.3465 0013155  33.0477 327.1579 15.21497973 56815
DIAMOND BLUE            
1 42786U 17036X   18182.80642615  .00000888  00000-0  42473-4 0  9994
2 42786  97.4001 242.2812 0013004  33.5446 326.6611 15.21497302 56802
NUDTSAT                 
1 42787U 17036Y   18182.88911921  .00001458  00000-0  66235-4 0  9998
2 42787  97.4008 242.6385 0012675  32.4145 327.7867 15.22293881 56606
SUCHAI                  
1 42788U 17036Z   18182.73386445  .00001179  00000-0  54648-4 0  9995
2 42788  97.4002 242.3748 0012776  33.0276 327.1756 15.21976807 56803
SKCUBE                  
1 42789U 17036AA  18182.79940162  .00001103  00000-0  51390-4 0  9992
2 42789  97.4000 242.4327 0012616  32.8448 327.3570 15.21936505 56736
VZLUSAT-1               
1 42790U 17036AB  18182.87822572  .00001422  00000-0  64635-4 0  9997
2 42790  97.4005 242.6354 0012246  33.0309 327.1690 15.22314448 56753
ROBUSTA-1B              
1 42792U 17036AD  18182.83244666  .00001134  00000-0  52516-4 0  9992
2 42792  97.3999 242.5306 0012212  33.9329 326.2686 15.22080544 56758
CICERO 6                
1 42793U 17036AE  18182.76254763  .00000813  00000-0  38712-4 0  9999
2 42793  97.3991 242.4531 0011424  35.7886 324.4114 15.21908797 56813
D-SAT                   
1 42794U 17036AF  18182.74198807  .00000114  00000-0  15701-4 0  9991
2 42794  97.5903 236.8495 0125775 233.3913 125.5684 14.90880076 55890
TOKI                    
1 42820U 98067MU  18182.75476641  .00016649  00000-0  14925-3 0  9996
2 42820  51.6350 286.7681 0002296 235.8105 124.2674 15.68452302 56147
MAZAALAI (NUMSAT-1)     
1 42822U 98067MW  18182.72728626  .00015533  00000-0  14131-3 0  9998
2 42822  51.6354 287.3408 0002358 240.3397 119.7365 15.68152903 56139
BRAC ONNESHA            
1 42823U 98067MX  18182.72239279  .00016250  00000-0  14693-3 0  9990
2 42823  51.6359 287.3268 0004764 253.9278 106.1194 15.68255531 56131
NIGERIAEDUSAT-1         
1 42824U 98067MY  18182.74852251  .00016072  00000-0  14668-3 0  9998
2 42824  51.6363 287.5185 0004700 254.2668 105.7811 15.68036472 56136
CORVUS BC2              
1 42846U 17042X   18182.76143056  .00000111  00000-0  16357-4 0  9999
2 42846  97.5961  85.1088 0010503 140.6271 219.5714 14.91827315 52549
